NORAD_CAT_ID,OBJECT_NAME,OBJECT_TYPE,EPOCH,MEAN_MOTION,ECCENTRICITY,INCLINATION,RA_OF_ASC_NODE,ARG_OF_PERICENTER,MEAN_ANOMALY,BSTAR,MEAN_MOTION_DOT,MEAN_MOTION_DDOT,TLE_LINE0,TLE_LINE1,TLE_LINE2,SEMIMAJOR_AXIS,PERIOD,APOGEE,PERIGEE,DECAYED
51856.0,STARLINK-3568,PAYLOAD,2023-12-11 14:08:17,15.08838055,0.0001473,53.2188,96.2122,89.0138,271.1023,7.4603e-05,8.99e-06,0.0,0 STARLINK-3568,1 51856U 22022E   23345.58909306  .00000899  00000-0  74603-4 0  9990,2 51856  53.2188  96.2122 0001473  89.0138 271.1023 15.08838055 99399,6917.886,95.438,540.77,538.732,0.0
51856.0,STARLINK-3568,PAYLOAD,2023-12-12 10:48:17,15.08852539,0.0001227,53.2186,92.3498,69.7661,290.3463,0.00025324,3.746e-05,0.0,0 STARLINK-3568,1 51856U 22022E   23346.45020065  .00003746  00000-0  25324-3 0  9992,2 51856  53.2186  92.3498 0001227  69.7661 290.3463 15.08852539 99522,6917.842,95.437,540.556,538.858,0.0
51856.0,STARLINK-3568,PAYLOAD,2023-12-12 13:59:03,15.08847025,0.0001193,53.2176,91.7555,88.3845,271.7284,0.00041261,6.286e-05,0.0,0 STARLINK-3568,1 51856U 22022E   23346.58267687  .00006286  00000-0  41261-3 0  9999,2 51856  53.2176  91.7555 0001193  88.3845 271.7284 15.08847025 99541,6917.859,95.437,540.549,538.899,0.0
51856.0,STARLINK-3568,PAYLOAD,2023-12-13 12:14:27,15.08855232,0.0001191,53.2177,87.5926,97.9311,262.1817,7.0126e-06,-1.76e-06,0.0,0 STARLINK-3568,1 51856U 22022E   23347.51003971 -.00000176  00000-0  70126-5 0  9994,2 51856  53.2177  87.5926 0001191  97.9311 262.1817 15.08855232 99689,6917.834,95.437,540.523,538.875,0.0
51856.0,STARLINK-3568,PAYLOAD,2023-12-14 12:05:14,15.08850233,0.0001207,53.2177,83.1324,95.9268,264.1861,-0.0001554,-2.761e-05,0.0,0 STARLINK-3568,1 51856U 22022E   23348.50364134 -.00002761  00000-0 -15540-3 0  9995,2 51856  53.2177  83.1324 0001207  95.9268 264.1861 15.08850233 99834,6917.849,95.437,540.549,538.879,0.0
51856.0,STARLINK-3568,PAYLOAD,2023-12-15 13:31:25,15.08811497,0.0001351,53.2176,78.3708,87.2533,272.8614,0.00043599,6.652e-05,0.0,0 STARLINK-3568,1 51856U 22022E   23349.56348401  .00006652  00000-0  43599-3 0  9997,2 51856  53.2176  78.3708 0001351  87.2533 272.8614 15.08811497 99992,6917.968,95.439,540.767,538.898,0.0
51856.0,STARLINK-3568,PAYLOAD,2023-12-16 13:22:12,15.08837458,0.0001432,53.2182,73.9164,68.4056,291.7089,7.7727e-05,9.49e-06,0.0,0 STARLINK-3568,1 51856U 22022E   23350.55708533  .00000949  00000-0  77727-4 0  9998,2 51856  53.2182  73.9164 0001432  68.4056 291.7089 15.08837458100148,6917.888,95.438,540.744,538.763,0.0
51856.0,STARLINK-3568,PAYLOAD,2023-12-17 13:12:59,15.08842066,0.0001633,53.2187,69.4531,68.7652,291.3514,5.0686e-05,5.19e-06,0.0,0 STARLINK-3568,1 51856U 22022E   23351.55068656  .00000519  00000-0  50686-4 0  9992,2 51856  53.2187  69.4531 0001633  68.7652 291.3514 15.08842066100295,6917.874,95.437,540.869,538.609,0.0
51856.0,STARLINK-3568,PAYLOAD,2023-12-18 11:28:21,15.08859039,0.0001632,53.2195,65.289,71.6942,288.4228,0.00014851,2.077e-05,0.0,0 STARLINK-3568,1 51856U 22022E   23352.47803134  .00002077  00000-0  14851-3 0  9996,2 51856  53.2195  65.2890 0001632  71.6942 288.4228 15.08859039100433,6917.822,95.436,540.816,538.558,0.0
51856.0,STARLINK-3568,PAYLOAD,2023-12-19 09:43:46,15.08842984,0.0001333,53.2193,61.1255,92.7735,267.341,1.2962e-05,-8.2e-07,0.0,0 STARLINK-3568,1 51856U 22022E   23353.40540351 -.00000082  00000-0  12962-4 0  9996,2 51856  53.2193  61.1255 0001333  92.7735 267.3410 15.08842984100578,6917.871,95.437,540.658,538.814,0.0
51856.0,STARLINK-3568,PAYLOAD,2023-12-20 09:34:34,15.08841939,0.0001397,53.2186,56.6723,94.6238,265.4914,-0.00013707,-2.469e-05,0.0,0 STARLINK-3568,1 51856U 22022E   23354.39900983 -.00002469  00000-0 -13707-3 0  9995,2 51856  53.2186  56.6723 0001397  94.6238 265.4914 15.08841939100722,6917.874,95.437,540.706,538.773,0.0
51856.0,STARLINK-3568,PAYLOAD,2023-12-21 11:00:44,15.08814759,0.0002064,53.2197,51.9146,118.7351,241.3849,0.00058815,9.078e-05,0.0,0 STARLINK-3568,1 51856U 22022E   23355.45885030  .00009078  00000-0  58815-3 0  9998,2 51856  53.2197  51.9146 0002064 118.7351 241.3849 15.08814759100884,6917.958,95.439,541.25,538.395,0.0
51856.0,STARLINK-3568,PAYLOAD,2023-12-22 09:16:08,15.08837561,0.0001869,53.2187,47.75,118.499,241.619,4.254e-05,3.89e-06,0.0,0 STARLINK-3568,1 51856U 22022E   23356.38621081  .00000389  00000-0  42540-4 0  9990,2 51856  53.2187  47.7500 0001869 118.4990 241.6190 15.08837561101023,6917.888,95.438,541.046,538.46,0.0
51856.0,STARLINK-3568,PAYLOAD,2023-12-23 10:42:19,15.08840934,0.0001719,53.2183,42.9947,54.0738,306.0413,5.0709e-05,5.19e-06,0.0,0 STARLINK-3568,1 51856U 22022E   23357.44605555  .00000519  00000-0  50709-4 0  9997,2 51856  53.2183  42.9947 0001719  54.0738 306.0413 15.08840934101189,6917.878,95.437,540.932,538.553,0.0
51856.0,STARLINK-3568,PAYLOAD,2023-12-23 12:17:41,15.08846566,0.0001507,53.2179,42.6942,82.1239,277.9924,2.124e-05,5e-07,0.0,0 STARLINK-3568,1 51856U 22022E   23357.51229140  .00000050  00000-0  21240-4 0  9995,2 51856  53.2179  42.6942 0001507  82.1239 277.9924 15.08846566101190,6917.86,95.437,540.768,538.683,0.0
51856.0,STARLINK-3568,PAYLOAD,2023-12-24 12:08:28,15.08855442,0.000182,53.217,38.2249,129.2995,230.8158,3.3866e-05,2.51e-06,0.0,0 STARLINK-3568,1 51856U 22022E   23358.50588435  .00000251  00000-0  33866-4 0  9990,2 51856  53.2170  38.2249 0001820 129.2995 230.8158 15.08855442101349,6917.833,95.437,540.957,538.439,0.0
51856.0,STARLINK-3568,PAYLOAD,2023-12-25 02:26:57,15.08837348,0.0001582,53.2168,35.5566,80.6317,279.4854,0.00010039,1.31e-05,0.0,0 STARLINK-3568,1 51856U 22022E   23359.10205756  .00001310  00000-0  10039-3 0  9992,2 51856  53.2168  35.5566 0001582  80.6317 279.4854 15.08837348101438,6917.888,95.438,540.848,538.659,0.0
51856.0,STARLINK-3568,PAYLOAD,2023-12-25 08:48:30,15.08841746,0.0001681,53.2171,34.3673,97.3048,262.8136,0.00015321,2.151e-05,0.0,0 STARLINK-3568,1 51856U 22022E   23359.36701496  .00002151  00000-0  15321-3 0  9995,2 51856  53.2171  34.3673 0001681  97.3048 262.8136 15.08841746101474,6917.875,95.437,540.903,538.577,0.0
51856.0,STARLINK-3568,PAYLOAD,2023-12-26 08:39:17,15.08838847,0.0001662,53.217,29.9078,92.717,267.4013,6.5545e-05,7.55e-06,0.0,0 STARLINK-3568,1 51856U 22022E   23360.36061797  .00000755  00000-0  65545-4 0  9992,2 51856  53.2170  29.9078 0001662  92.7170 267.4013 15.08838847101626,6917.884,95.438,540.899,538.599,0.0
51856.0,STARLINK-3568,PAYLOAD,2023-12-27 08:30:04,15.08842432,0.0001608,53.218,25.4473,97.8526,262.2648,7.1771e-05,8.54e-06,0.0,0 STARLINK-3568,1 51856U 22022E   23361.35421561  .00000854  00000-0  71771-4 0  9999,2 51856  53.2180  25.4473 0001608  97.8526 262.2648 15.08842432101776,6917.873,95.437,540.85,538.626,0.0
51856.0,STARLINK-3568,PAYLOAD,2023-12-28 01:59:19,15.08836854,0.0001616,53.2183,22.177,100.6811,259.4363,7.2269e-05,8.62e-06,0.0,0 STARLINK-3568,1 51856U 22022E   23362.08285919  .00000862  00000-0  72269-4 0  9997,2 51856  53.2183  22.1770 0001616 100.6811 259.4363 15.08836854101887,6917.89,95.438,540.873,538.637,0.0
51856.0,STARLINK-3568,PAYLOAD,2023-12-28 08:20:51,15.08836988,0.0001692,53.2188,20.9875,110.9582,249.1592,6.7089e-05,7.8e-06,0.0,0 STARLINK-3568,1 51856U 22022E   23362.34781923  .00000780  00000-0  67089-4 0  9995,2 51856  53.2188  20.9875 0001692 110.9582 249.1592 15.08836988101920,6917.89,95.438,540.925,538.584,0.0
51856.0,STARLINK-3568,PAYLOAD,2023-12-29 08:11:38,15.08836888,0.0001613,53.2189,16.5279,105.3533,254.7637,2.9692e-05,1.85e-06,0.0,0 STARLINK-3568,1 51856U 22022E   23363.34142333  .00000185  00000-0  29692-4 0  9999,2 51856  53.2189  16.5279 0001613 105.3533 254.7637 15.08836888102075,6917.89,95.438,540.871,538.639,0.0
51856.0,STARLINK-3568,PAYLOAD,2023-12-29 22:30:08,15.08821579,0.0001832,53.2193,13.8488,124.8685,235.248,-6.683e-05,-1.351e-05,0.0,0 STARLINK-3568,1 51856U 22022E   23363.93759874 -.00001351  00000-0 -66830-4 0  9991,2 51856  53.2193  13.8488 0001832 124.8685 235.2480 15.08821579102160,6917.937,95.439,541.069,538.534,0.0
51856.0,STARLINK-3568,PAYLOAD,2023-12-30 11:13:14,15.08818879,0.0002064,53.2177,11.4634,130.1673,229.95,-0.00010282,-1.923e-05,0.0,0 STARLINK-3568,1 51856U 22022E   23364.46752728 -.00001923  00000-0 -10282-3 0  9995,2 51856  53.2177  11.4634 0002064 130.1673 229.9500 15.08818879102245,6917.945,95.439,541.238,538.382,0.0
51856.0,STARLINK-3568,PAYLOAD,2023-12-30 23:56:18,15.08837585,0.0001286,53.219,9.095,86.3699,273.744,8.8385e-05,1.119e-05,0.0,0 STARLINK-3568,1 51856U 22022E   23364.99743428  .00001119  00000-0  88385-4 0  9995,2 51856  53.2190   9.0950 0001286  86.3699 273.7440 15.08837585102323,6917.888,95.438,540.642,538.863,0.0
51856.0,STARLINK-3568,PAYLOAD,2023-12-31 07:53:13,15.08849586,0.0001467,53.2179,7.6035,98.5433,261.5726,0.00019438,2.808e-05,0.0,0 STARLINK-3568,1 51856U 22022E   23365.32862575  .00002808  00000-0  19438-3 0  9996,2 51856  53.2179   7.6035 0001467  98.5433 261.5726 15.08849586102371,6917.851,95.437,540.731,538.701,0.0
51856.0,STARLINK-3568,PAYLOAD,2024-01-01 07:44:00,15.08848607,0.0001389,53.2189,3.1446,73.3576,286.7569,0.00025071,3.705e-05,0.0,0 STARLINK-3568,1 51856U 22022E   24001.32222732  .00003705  00000-0  25071-3 0  9996,2 51856  53.2189   3.1446 0001389  73.3576 286.7569 15.08848607102525,6917.854,95.437,540.68,538.758,0.0
51856.0,STARLINK-3568,PAYLOAD,2024-01-02 04:24:01,15.0885228,0.0001423,53.2181,359.2774,101.4053,258.7099,1.9101e-06,-2.58e-06,0.0,0 STARLINK-3568,1 51856U 22022E   24002.18334514 -.00000258  00000-0  19101-5 0  9993,2 51856  53.2181 359.2774 0001423 101.4053 258.7099 15.08852280102651,6917.843,95.437,540.692,538.723,0.0
51856.0,STARLINK-3568,PAYLOAD,2024-01-02 05:59:24,15.08853127,0.0001429,53.2182,358.9804,95.8271,264.2884,1.107e-05,-1.12e-06,0.0,0 STARLINK-3568,1 51856U 22022E   24002.24958479 -.00000112  00000-0  11070-4 0  9997,2 51856  53.2182 358.9804 0001429  95.8271 264.2884 15.08853127102662,6917.84,95.437,540.694,538.717,0.0
